OBJECT_NAME,OBJECT_ID,EPOCH,MEAN_MOTION,ECCENTRICITY,INCLINATION,RA_OF_ASC_NODE,ARG_OF_PERICENTER,MEAN_ANOMALY,EPHEMERIS_TYPE,CLASSIFICATION_TYPE,NORAD_CAT_ID,ELEMENT_SET_NO,REV_AT_EPOCH,BSTAR,MEAN_MOTION_DOT,MEAN_MOTION_DDOT
TEVEL2-9,2025-052AD,2026-07-20T06:19:12.067968,15.32827728,.00072091,97.3892,96.5399,42.4598,317.7200,0,U,63237,999,7509,.31277913E-3,.9848E-4,0
TEVEL2-7,2025-052AE,2026-07-20T05:53:37.168512,15.32507264,.00073211,97.3894,96.4235,42.8793,317.3019,0,U,63238,999,7508,.29019794E-3,.9039E-4,0
TEVEL2-8,2025-052AF,2026-07-20T06:05:57.639840,15.32492928,.0007392,97.3895,96.4084,43.6806,316.5020,0,U,63239,999,7508,.29437544E-3,.9166E-4,0
FORESAIL-1 PRIME,2025-276DS,2026-07-20T04:49:15.901536,15.18962565,.00024593,97.4184,273.8709,32.5574,327.5811,0,U,66778,999,3541,.12196287E-3,.2482E-4,0
